[{"OBJECT_NAME":"TRANSPORTER-12 OBJECT AZ","OBJECT_ID":"2025-009AZ","EPOCH":"2026-03-09T17:02:46.667040","MEAN_MOTION":15.30349724,"ECCENTRICITY":9.87e-5,"INCLINATION":97.3981,"RA_OF_ASC_NODE":151.9913,"ARG_OF_PERICENTER":45.3581,"MEAN_ANOMALY":314.774,"EPHEMERIS_TYPE":0,"CLASSIFICATION_TYPE":"U","NORAD_CAT_ID":62656,"ELEMENT_SET_NO":999,"REV_AT_EPOCH":6379,"BSTAR":0.00054902545,"MEAN_MOTION_DOT":0.00016057,"MEAN_MOTION_DDOT":0},{"OBJECT_NAME":"STARLINK-34508","OBJECT_ID":"2025-137H","EPOCH":"2026-03-09T22:22:24.214944","MEAN_MOTION":15.30242327,"ECCENTRICITY":0.00010718,"INCLINATION":53.1607,"RA_OF_ASC_NODE":333.9898,"ARG_OF_PERICENTER":98.7808,"MEAN_ANOMALY":261.3315,"EPHEMERIS_TYPE":0,"CLASSIFICATION_TYPE":"U","NORAD_CAT_ID":64601,"ELEMENT_SET_NO":999,"REV_AT_EPOCH":4077,"BSTAR":0.00095187672,"MEAN_MOTION_DOT":0.00027976,"MEAN_MOTION_DDOT":0}]
